GLOBALSTAR M001         
1 25162U 98008A   25117.32825463 -.00000077  00000+0  15239-3 0  9997
2 25162  52.0006 121.2519 0001491 142.5701 230.8851 12.38213245237412
GLOBALSTAR M004         
1 25163U 98008B   25117.61706095 -.00000057  00000+0  25740-3 0  9995
2 25163  51.9996 208.4287 0003477 173.2741 325.7964 12.63394547255298
GLOBALSTAR M002         
1 25164U 98008C   25117.39144481 -.00000068  00000+0  15845-3 0  9993
2 25164  52.0052   7.5651 0002087  60.1468 299.9559 11.61509429178169
GLOBALSTAR M003         
1 25165U 98008D   25117.26390145 -.00000087  00000+0  21827-4 0  9999
2 25165  52.0012 309.5586 0007990 185.6544 346.0676 12.12076779227044
GLOBALSTAR M014         
1 25306U 98023A   25117.60216969 -.00000069  00000+0  15175-3 0  9990
2 25306  51.9842 291.3267 0000423 214.6057 179.0926 11.65479994185273
GLOBALSTAR M006         
1 25307U 98023B   25117.54044008 -.00000059  00000+0  34001-3 0  9995
2 25307  51.9972 342.0622 0003605  24.7303 339.2034 11.58174482210967
GLOBALSTAR M015         
1 25308U 98023C   25117.83571881 -.00000082  00000+0 -18765-3 0  9998
2 25308  51.9816  77.4851 0012760 346.8067  25.5666 11.48858825188661
GLOBALSTAR M008         
1 25309U 98023D   25117.39555106 -.00000035  00000+0  48356-3 0  9998
2 25309  51.9994 345.3133 0003386  72.7117  98.4550 12.36068020231561
